"spid","OBJECTID","FNAME","CLASS","DESCRIPTIO","COORD_X","COORD_Y","admin1Name","admin1Pcod","admin2Name","admin2Pcod","admin0Name","admin0Pcod","rowcacode0","Pcod1_iso3","Pcod2_iso3","coords.x1","coords.x2","optional","d"
1,"1525","Pohkpa Village",0,NA,-9.72628,5.60477,"Grand Bassa","LR04","District # 4","LR0405","Liberia","LR","LBR","LBR004","LBR004005",-9.72627999999997,5.60477000000003,TRUE,4.99635740416307
1,"1537","Gbueban Village",0,NA,-9.72023,5.61651,"Grand Bassa","LR04","District # 4","LR0405","Liberia","LR","LBR","LBR004","LBR004005",-9.72022999999996,5.61651000000006,TRUE,4.98372418595043
1,"1560","Volugbo Village",0,NA,-9.72694,5.62764,"Grand Bassa","LR04","District # 4","LR0405","Liberia","LR","LBR","LBR004","LBR004005",-9.72693999999996,5.62764000000004,TRUE,4.85100372656159
1,"1563","Chipay Village",0,NA,-9.73227,5.6294,"Grand Bassa","LR04","District # 4","LR0405","Liberia","LR","LBR","LBR004","LBR004005",-9.73226999999997,5.62940000000003,TRUE,4.71593185899082
1,"1570","Karr Henry",0,NA,-9.71053,5.63409,"Grand Bassa","LR04","District # 4","LR0405","Liberia","LR","LBR","LBR004","LBR004005",-9.71052999999995,5.63409000000007,TRUE,4.66286431158545
1,"1582","Dehyusaweh Village",0,NA,-9.73194,5.64273,"Grand Bassa","LR04","District # 4","LR0405","Liberia","LR","LBR","LBR004","LBR004005",-9.73193999999995,5.64273000000003,TRUE,4.64572461249233
1,"1590","Jalaydaye",0,NA,-9.69187,5.64664,"Grand Bassa","LR04","District # 4","LR0405","Liberia","LR","LBR","LBR004","LBR004005",-9.69186999999994,5.64664000000005,TRUE,4.13911407531751
1,"1598","Clayehyee",0,NA,-9.70148,5.65351,"Grand Bassa","LR04","District # 4","LR0405","Liberia","LR","LBR","LBR004","LBR004005",-9.70147999999995,5.65351000000004,TRUE,4.06140748202876
1,"1604","David Villages",0,NA,-9.72429,5.65512,"Grand Bassa","LR04","District # 4","LR0405","Liberia","LR","LBR","LBR004","LBR004005",-9.72428999999994,5.65512000000007,TRUE,3.74154898456099
1,"1608","Chadeh Village",0,NA,-9.6853,5.65824,"Grand Bassa","LR04","District # 4","LR0405","Liberia","LR","LBR","LBR004","LBR004005",-9.68529999999993,5.65824000000003,TRUE,3.04697493271243
1,"1611","Peoland / Nemon",0,NA,-9.718,5.66208,"Grand Bassa","LR04","District # 4","LR0405","Liberia","LR","LBR","LBR004","LBR004005",-9.71799999999996,5.66208000000006,TRUE,2.80425903756892
1,"1622","Worwein Vilage",0,NA,-9.68174,5.66689,"Grand Bassa","LR04","District # 4","LR0405","Liberia","LR","LBR","LBR004","LBR004005",-9.68173999999993,5.66689000000002,TRUE,2.32835860140335
1,"1633","Readygar Village",0,NA,-9.68456,5.67593,"Grand Bassa","LR04","District # 4","LR0405","Liberia","LR","LBR","LBR004","LBR004005",-9.68455999999998,5.67593000000005,TRUE,1.74049944195704
2,"1756","Dugboryewh Village",0,NA,-9.90565,5.74634,"Grand Bassa","LR04","District # 4","LR0405","Liberia","LR","LBR","LBR004","LBR004005",-9.90564999999998,5.74634000000003,TRUE,5.04527527404736
2,"1776","Goffa Village",0,NA,-9.89284,5.75829,"Grand Bassa","LR04","District # 4","LR0405","Liberia","LR","LBR","LBR004","LBR004005",-9.89283999999998,5.75829000000004,TRUE,4.83819629122816
2,"1788","Konoe Village",0,NA,-9.89783,5.76464,"Grand Bassa","LR04","District # 4","LR0405","Liberia","LR","LBR","LBR004","LBR004005",-9.89782999999994,5.76464000000004,TRUE,4.80162371048216
2,"1791","Naka",0,NA,-9.91116,5.76609,"Grand Bassa","LR04","District # 4","LR0405","Liberia","LR","LBR","LBR004","LBR004005",-9.91115999999994,5.76609000000008,TRUE,4.73919898020966
2,"1799","Neeter",0,NA,-9.94942,5.76839,"Grand Bassa","LR04","District # 4","LR0405","Liberia","LR","LBR","LBR004","LBR004005",-9.94941999999998,5.76839000000007,TRUE,4.70553308093946
2,"1802","Firestone Village",0,NA,-9.94216,5.77114,"Grand Bassa","LR04","District # 4","LR0405","Liberia","LR","LBR","LBR004","LBR004005",-9.94215999999994,5.77114000000006,TRUE,4.66658487268312
2,"1806","Sweet Gaye",0,NA,-9.92269,5.77225,"Grand Bassa","LR04","District # 4","LR0405","Liberia","LR","LBR","LBR004","LBR004005",-9.92268999999993,5.77225000000004,TRUE,4.13663726497541
2,"1848","Newcess",0,NA,-9.97218,5.78926,"Grand Bassa","LR04","Neekreen","LR0406","Liberia","LR","LBR","LBR004","LBR004006",-9.97217999999998,5.78926000000007,TRUE,4.02686050436101
2,"1857","Duah Village",0,NA,-9.90553,5.79524,"Grand Bassa","LR04","District # 4","LR0405","Liberia","LR","LBR","LBR004","LBR004005",-9.90552999999994,5.79524000000004,TRUE,3.99150285472919
2,"1873","Garmondeh / Troyea Vi",0,NA,-9.89779,5.80032,"Grand Bassa","LR04","District # 4","LR0405","Liberia","LR","LBR","LBR004","LBR004005",-9.89778999999993,5.80032000000006,TRUE,2.51512750902247
2,"1898","Gborgar Village",0,NA,-9.94722,5.81269,"Grand Bassa","LR04","Neekreen","LR0406","Liberia","LR","LBR","LBR004","LBR004006",-9.94721999999996,5.81269000000003,TRUE,1.83248736917884
2,"1899","Vaimah",0,NA,-9.91928,5.81308,"Grand Bassa","LR04","District # 4","LR0405","Liberia","LR","LBR","LBR004","LBR004005",-9.91927999999996,5.81308000000007,TRUE,1.16513258411794
2,"1901","Zardah",0,NA,-9.93857,5.81346,"Grand Bassa","LR04","Neekreen","LR0406","Liberia","LR","LBR","LBR004","LBR004006",-9.93856999999997,5.81346000000002,TRUE,0.994856966096776
3,"1755","Whea Village",0,NA,-9.77521,5.7461,"Grand Bassa","LR04","District # 4","LR0405","Liberia","LR","LBR","LBR004","LBR004005",-9.77520999999996,5.74610000000007,TRUE,2.87503350909551
3,"1757","Kodou Village",0,NA,-9.76375,5.74661,"Grand Bassa","LR04","District # 4","LR0405","Liberia","LR","LBR","LBR004","LBR004005",-9.76374999999996,5.74661000000003,TRUE,2.86103010612045
3,"1766","Portroyah Village",0,NA,-9.76868,5.75021,"Grand Bassa","LR04","District # 4","LR0405","Liberia","LR","LBR","LBR004","LBR004005",-9.76867999999996,5.75021000000004,TRUE,2.70225295107184
3,"1775","Sammie Village",0,NA,-9.79094,5.75769,"Grand Bassa","LR04","District # 4","LR0405","Liberia","LR","LBR","LBR004","LBR004005",-9.79093999999998,5.75769000000003,TRUE,2.40344000337871
3,"1782","Zoepu Village",0,NA,-9.78959,5.76082,"Grand Bassa","LR04","District # 4","LR0405","Liberia","LR","LBR","LBR004","LBR004005",-9.78958999999998,5.76082000000002,TRUE,2.39053987862436
3,"1792","Glaydor Village",0,NA,-9.79015,5.7661,"Grand Bassa","LR04","District # 4","LR0405","Liberia","LR","LBR","LBR004","LBR004005",-9.79014999999993,5.76610000000005,TRUE,2.37873098280842
3,"1825","Gaye John",0,NA,-9.75786,5.78181,"Grand Bassa","LR04","District # 4","LR0405","Liberia","LR","LBR","LBR004","LBR004005",-9.75785999999994,5.78181000000006,TRUE,2.21888075295993
3,"1829","Borbor",0,NA,-9.76599,5.78251,"Grand Bassa","LR04","District # 4","LR0405","Liberia","LR","LBR","LBR004","LBR004005",-9.76598999999993,5.78251000000006,TRUE,1.96784059691732
3,"1830","Manneh",0,NA,-9.76101,5.78272,"Grand Bassa","LR04","District # 4","LR0405","Liberia","LR","LBR","LBR004","LBR004005",-9.76100999999994,5.78272000000004,TRUE,1.83155923406317
3,"1836","Jubia",0,NA,-9.77356,5.78435,"Grand Bassa","LR04","District # 4","LR0405","Liberia","LR","LBR","LBR004","LBR004005",-9.77355999999997,5.78435000000007,TRUE,1.64525471111295
3,"1846","Borbor's Village",0,NA,-9.77693,5.78834,"Grand Bassa","LR04","District # 4","LR0405","Liberia","LR","LBR","LBR004","LBR004005",-9.77692999999994,5.78834000000006,TRUE,1.44002641731318
3,"1852","Wralakfa",0,NA,-9.77814,5.79209,"Grand Bassa","LR04","District # 4","LR0405","Liberia","LR","LBR","LBR004","LBR004005",-9.77813999999995,5.79209000000003,TRUE,1.32208160048381
4,"2143","Prayer",0,NA,-9.99176,5.89524,"Grand Bassa","LR04","Neekreen","LR0406","Liberia","LR","LBR","LBR004","LBR004006",-9.99175999999994,5.89524000000006,TRUE,3.52524094797494
4,"2144","Kaksbahn",0,NA,-9.98729,5.89536,"Grand Bassa","LR04","Neekreen","LR0406","Liberia","LR","LBR","LBR004","LBR004006",-9.98728999999997,5.89536000000004,TRUE,3.24474656728704
4,"2171","Rubein Village",0,NA,-9.98894,5.90618,"Grand Bassa","LR04","Neekreen","LR0406","Liberia","LR","LBR","LBR004","LBR004006",-9.98893999999996,5.90618000000006,TRUE,3.12352115057942
4,"2184","Guah Village",0,NA,-9.99118,5.91032,"Grand Bassa","LR04","Neekreen","LR0406","Liberia","LR","LBR","LBR004","LBR004006",-9.99117999999993,5.91032000000007,TRUE,3.09268252496397
4,"2185","Guah",0,NA,-9.99148,5.91039,"Grand Bassa","LR04","Neekreen","LR0406","Liberia","LR","LBR","LBR004","LBR004006",-9.99147999999997,5.91039000000006,TRUE,2.88964901581857
4,"2194","Joe Farmer",0,NA,-9.99826,5.91355,"Grand Bassa","LR04","Neekreen","LR0406","Liberia","LR","LBR","LBR004","LBR004006",-9.99825999999996,5.91355000000004,TRUE,2.83548625882831
4,"2212","Whob Village",0,NA,-9.9869,5.91737,"Grand Bassa","LR04","Neekreen","LR0406","Liberia","LR","LBR","LBR004","LBR004006",-9.98689999999993,5.91737000000006,TRUE,2.75880311323549
4,"2239","Logan",0,NA,-9.99574,5.92498,"Grand Bassa","LR04","Neekreen","LR0406","Liberia","LR","LBR","LBR004","LBR004006",-9.99573999999996,5.92498000000006,TRUE,2.62530384035849
4,"2255","Kupue Village",0,NA,-10.03163,5.93013,"Grand Bassa","LR04","Neekreen","LR0406","Liberia","LR","LBR","LBR004","LBR004006",-10.03163,5.93013000000008,TRUE,2.57286702164834
4,"2260","Floh",0,NA,-10.01391,5.93129,"Grand Bassa","LR04","Neekreen","LR0406","Liberia","LR","LBR","LBR004","LBR004006",-10.01391,5.93129000000005,TRUE,2.53914302361741
4,"2267","Domah",0,NA,-9.99385,5.93314,"Grand Bassa","LR04","Neekreen","LR0406","Liberia","LR","LBR","LBR004","LBR004006",-9.99384999999995,5.93314000000004,TRUE,2.50015503950834
4,"2275","Jeremiah Harris",0,NA,-10.00789,5.93501,"Grand Bassa","LR04","Neekreen","LR0406","Liberia","LR","LBR","LBR004","LBR004006",-10.00789,5.93501000000003,TRUE,2.1153886309364
4,"2288","Zoe",0,NA,-10.01492,5.9378,"Grand Bassa","LR04","Neekreen","LR0406","Liberia","LR","LBR","LBR004","LBR004006",-10.01492,5.93780000000004,TRUE,1.78733626572655
5,"2152","Kpehyou",0,NA,-9.85483,5.8983,"Grand Bassa","LR04","Neekreen","LR0406","Liberia","LR","LBR","LBR004","LBR004006",-9.85482999999994,5.89830000000006,TRUE,2.11621108739448
5,"2161","Joynor Village",0,NA,-9.8367,5.90075,"Grand Bassa","LR04","Neekreen","LR0406","Liberia","LR","LBR","LBR004","LBR004006",-9.83669999999995,5.90075000000007,TRUE,2.04276645996313
5,"2163","Kpehpue",0,NA,-9.8502,5.90178,"Grand Bassa","LR04","Neekreen","LR0406","Liberia","LR","LBR","LBR004","LBR004006",-9.85019999999997,5.90178000000003,TRUE,2.01344430280842
5,"2166","Kporkon",3,"Capital of District",-9.8682,5.90326,"Grand Bassa","LR04","Neekreen","LR0406","Liberia","LR","LBR","LBR004","LBR004006",-9.86819999999994,5.90326000000005,TRUE,1.90286999123362
5,"2174","Kpelle Village",0,NA,-9.83527,5.9084,"Grand Bassa","LR04","Neekreen","LR0406","Liberia","LR","LBR","LBR004","LBR004006",-9.83526999999998,5.90840000000003,TRUE,1.56424597529426
5,"2175","Wheigo",0,NA,-9.85375,5.90842,"Grand Bassa","LR04","Neekreen","LR0406","Liberia","LR","LBR","LBR004","LBR004006",-9.85374999999993,5.90842000000004,TRUE,1.39276829182047
5,"2176","James Zonoe",0,NA,-9.85867,5.90861,"Grand Bassa","LR04","Neekreen","LR0406","Liberia","LR","LBR","LBR004","LBR004006",-9.85866999999996,5.90861000000007,TRUE,1.16643827897767
5,"2188","Maye Village",0,NA,-9.86459,5.91136,"Grand Bassa","LR04","Neekreen","LR0406","Liberia","LR","LBR","LBR004","LBR004006",-9.86458999999996,5.91136000000006,TRUE,1.1601825492835
5,"2190","Peter's Glay",0,NA,-9.84655,5.91175,"Grand Bassa","LR04","Neekreen","LR0406","Liberia","LR","LBR","LBR004","LBR004006",-9.84654999999998,5.91175000000004,TRUE,0.964925943139439
5,"2192","Kair's Village",0,NA,-9.84354,5.91289,"Grand Bassa","LR04","Neekreen","LR0406","Liberia","LR","LBR","LBR004","LBR004006",-9.84353999999996,5.91289000000006,TRUE,0.944381233131785
5,"2207","Memangar Village",0,NA,-9.86007,5.91555,"Grand Bassa","LR04","Neekreen","LR0406","Liberia","LR","LBR","LBR004","LBR004006",-9.86006999999995,5.91555000000005,TRUE,0.83304439600836
5,"2214","Zeogar",0,NA,-9.83477,5.91787,"Grand Bassa","LR04","Neekreen","LR0406","Liberia","LR","LBR","LBR004","LBR004006",-9.83476999999993,5.91787000000005,TRUE,0.609419734424674
5,"2215","Gboyah / Yeakai Villa",0,NA,-9.86063,5.91817,"Grand Bassa","LR04","Neekreen","LR0406","Liberia","LR","LBR","LBR004","LBR004006",-9.86062999999996,5.91817000000003,TRUE,0.45557725605429
6,"2087","Geezaye",0,NA,-9.68018,5.88105,"Grand Bassa","LR04","District # 4","LR0405","Liberia","LR","LBR","LBR004","LBR004005",-9.68017999999995,5.88105000000007,TRUE,5.24850406206973
6,"2090","Qwrakpo",0,NA,-9.72567,5.88122,"Grand Bassa","LR04","District # 4","LR0405","Liberia","LR","LBR","LBR004","LBR004005",-9.72566999999998,5.88122000000004,TRUE,4.78161080875792
6,"2091","Tarloe",0,NA,-9.70901,5.88124,"Grand Bassa","LR04","District # 4","LR0405","Liberia","LR","LBR","LBR004","LBR004005",-9.70900999999998,5.88124000000005,TRUE,4.22413659086836
6,"2130","Deabozohn",0,NA,-9.65834,5.89179,"Grand Bassa","LR04","District # 4","LR0405","Liberia","LR","LBR","LBR004","LBR004005",-9.65833999999995,5.89179000000007,TRUE,4.14274484606729
6,"2141","Gorzohn",0,NA,-9.71094,5.89511,"Grand Bassa","LR04","District # 4","LR0405","Liberia","LR","LBR","LBR004","LBR004005",-9.71093999999994,5.89511000000005,TRUE,4.03144148586581
6,"2177","Compound",0,NA,-9.71197,5.90886,"Grand Bassa","LR04","District # 4","LR0405","Liberia","LR","LBR","LBR004","LBR004005",-9.71196999999995,5.90886000000006,TRUE,3.5999550073723
6,"2178","Ben's",0,NA,-9.70611,5.90887,"Grand Bassa","LR04","District # 4","LR0405","Liberia","LR","LBR","LBR004","LBR004005",-9.70610999999997,5.90887000000004,TRUE,3.35752751671295
6,"2179","Korzohn",0,NA,-9.71659,5.90965,"Grand Bassa","LR04","District # 4","LR0405","Liberia","LR","LBR","LBR004","LBR004005",-9.71658999999994,5.90965000000006,TRUE,3.20867055036632
6,"2193","Margar Village",0,NA,-9.68373,5.91353,"Grand Bassa","LR04","District # 4","LR0405","Liberia","LR","LBR","LBR004","LBR004005",-9.68372999999997,5.91353000000004,TRUE,3.01193158221887
6,"2300","Gbor Joe",0,NA,-9.68678,5.94103,"Grand Bassa","LR04","District # 4","LR0405","Liberia","LR","LBR","LBR004","LBR004005",-9.68677999999994,5.94103000000007,TRUE,2.98681269625134
6,"2301","Wahn",0,NA,-9.68036,5.94104,"Grand Bassa","LR04","District # 4","LR0405","Liberia","LR","LBR","LBR004","LBR004005",-9.68035999999995,5.94104000000004,TRUE,2.48924126204468
6,"2304","Burtroyah",0,NA,-9.71424,5.94144,"Grand Bassa","LR04","District # 4","LR0405","Liberia","LR","LBR","LBR004","LBR004005",-9.71423999999996,5.94144000000006,TRUE,1.84962898668688
6,"2356","Tiah Village",0,NA,-9.68309,5.95489,"Grand Bassa","LR04","District # 4","LR0405","Liberia","LR","LBR","LBR004","LBR004005",-9.68308999999994,5.95489000000003,TRUE,0.681708894969816
7,"2680","Malikor's",0,NA,-10.20923,6.02428,"Grand Bassa","LR04","District # 1","LR0402","Liberia","LR","LBR","LBR004","LBR004002",-10.2092299999999,6.02428000000003,TRUE,6.22936068626183
7,"2726","Little Bassa",0,NA,-10.21604,6.0335,"Grand Bassa","LR04","District # 1","LR0402","Liberia","LR","LBR","LBR004","LBR004002",-10.21604,6.03350000000006,TRUE,6.01019293233587
7,"2752","Samuel Browne",0,NA,-10.21985,6.03846,"Grand Bassa","LR04","District # 1","LR0402","Liberia","LR","LBR","LBR004","LBR004002",-10.21985,6.03846000000004,TRUE,5.82157450847425
7,"2847","Barwain",0,NA,-10.20392,6.05942,"Grand Bassa","LR04","District # 1","LR0402","Liberia","LR","LBR","LBR004","LBR004002",-10.2039199999999,6.05942000000005,TRUE,5.60483208606288
7,"2879","Duo Village",0,NA,-10.26446,6.06801,"Grand Bassa","LR04","District # 1","LR0402","Liberia","LR","LBR","LBR004","LBR004002",-10.2644599999999,6.06801000000007,TRUE,5.5441121841661
7,"2902","Gor",0,NA,-10.22238,6.07385,"Grand Bassa","LR04","District # 1","LR0402","Liberia","LR","LBR","LBR004","LBR004002",-10.2223799999999,6.07385000000005,TRUE,5.08828626657303
7,"2940","Beanan Village",0,NA,-10.24509,6.0815,"Grand Bassa","LR04","District # 1","LR0402","Liberia","LR","LBR","LBR004","LBR004002",-10.2450899999999,6.08150000000006,TRUE,4.72983705889809
7,"2965","Gbargaye",0,NA,-10.26581,6.08771,"Grand Bassa","LR04","District # 1","LR0402","Liberia","LR","LBR","LBR004","LBR004002",-10.2658099999999,6.08771000000007,TRUE,4.56399489885008
7,"2980","Jahway Village",0,NA,-10.25267,6.08974,"Grand Bassa","LR04","District # 1","LR0402","Liberia","LR","LBR","LBR004","LBR004002",-10.25267,6.08974000000006,TRUE,4.48745329151659
7,"2987","Kro",0,NA,-10.22479,6.09043,"Grand Bassa","LR04","District # 1","LR0402","Liberia","LR","LBR","LBR004","LBR004002",-10.2247899999999,6.09043000000003,TRUE,4.13249341033373
7,"3013","Zuah Village",0,NA,-10.26367,6.09509,"Grand Bassa","LR04","Owensgrove","LR0407","Liberia","LR","LBR","LBR004","LBR004007",-10.2636699999999,6.09509000000003,TRUE,3.96918865488956
7,"3036","Behzon Village",0,NA,-10.27208,6.10135,"Grand Bassa","LR04","Owensgrove","LR0407","Liberia","LR","LBR","LBR004","LBR004007",-10.27208,6.10135000000002,TRUE,3.47917800044379
7,"3037","Wesseh Village",0,NA,-10.27778,6.10142,"Grand Bassa","LR04","District # 1","LR0402","Liberia","LR","LBR","LBR004","LBR004002",-10.27778,6.10142000000008,TRUE,1.84415408890748
8,"2721","Bueh",0,NA,-10.09518,6.03236,"Grand Bassa","LR04","St. John River City","LR0408","Liberia","LR","LBR","LBR004","LBR004008",-10.09518,6.03236000000004,TRUE,3.13793051398432
8,"2730","Kpah",0,NA,-10.11435,6.03396,"Grand Bassa","LR04","St. John River City","LR0408","Liberia","LR","LBR","LBR004","LBR004008",-10.1143499999999,6.03396000000004,TRUE,3.01372794393244
8,"2754","Gbarzee",0,NA,-10.11144,6.03879,"Grand Bassa","LR04","St. John River City","LR0408","Liberia","LR","LBR","LBR004","LBR004008",-10.11144,6.03879000000006,TRUE,2.94345961206238
8,"2770","Gbarzee Mission",0,NA,-10.10907,6.04138,"Grand Bassa","LR04","St. John River City","LR0408","Liberia","LR","LBR","LBR004","LBR004008",-10.10907,6.04138000000006,TRUE,2.85547442483027
8,"2774","Kollie",0,NA,-10.08921,6.04267,"Grand Bassa","LR04","St. John River City","LR0408","Liberia","LR","LBR","LBR004","LBR004008",-10.08921,6.04267000000004,TRUE,2.84790134221869
8,"2780","Janjay",0,NA,-10.1199,6.04437,"Grand Bassa","LR04","St. John River City","LR0408","Liberia","LR","LBR","LBR004","LBR004008",-10.1199,6.04437000000007,TRUE,2.34332680692025
8,"2784","Gbaquep",0,NA,-10.09601,6.04492,"Grand Bassa","LR04","St. John River City","LR0408","Liberia","LR","LBR","LBR004","LBR004008",-10.09601,6.04492000000005,TRUE,2.27941350465076
8,"2838","Quegar",0,NA,-10.06866,6.05732,"Grand Bassa","LR04","St. John River City","LR0408","Liberia","LR","LBR","LBR004","LBR004008",-10.06866,6.05732000000006,TRUE,2.25241197930114
8,"2841","Baa",0,NA,-10.10409,6.058,"Grand Bassa","LR04","St. John River City","LR0408","Liberia","LR","LBR","LBR004","LBR004008",-10.1040899999999,6.05800000000005,TRUE,2.14188038864295
8,"2870","Tarpue",0,NA,-10.10963,6.06595,"Grand Bassa","LR04","St. John River City","LR0408","Liberia","LR","LBR","LBR004","LBR004008",-10.10963,6.06595000000004,TRUE,1.95778886632864
8,"2897","Yeasay",0,NA,-10.09258,6.07313,"Grand Bassa","LR04","St. John River City","LR0408","Liberia","LR","LBR","LBR004","LBR004008",-10.0925799999999,6.07313000000005,TRUE,1.31166999117876
8,"2920","Karmour",0,NA,-10.08749,6.0772,"Grand Bassa","LR04","St. John River City","LR0408","Liberia","LR","LBR","LBR004","LBR004008",-10.0874899999999,6.07720000000006,TRUE,1.11614682725068
8,"2935","Lay's Village",0,NA,-10.09961,6.0808,"Grand Bassa","LR04","District # 1","LR0402","Liberia","LR","LBR","LBR004","LBR004002",-10.0996099999999,6.08080000000007,TRUE,0.865064936559384
9,"2738","Gardea # 2",0,NA,-9.92894,6.03541,"Grand Bassa","LR04","St. John River City","LR0408","Liberia","LR","LBR","LBR004","LBR004008",-9.92893999999995,6.03541000000007,TRUE,2.0708141540742
9,"2766","Godgbarn",0,NA,-9.94516,6.04063,"Grand Bassa","LR04","St. John River City","LR0408","Liberia","LR","LBR","LBR004","LBR004008",-9.94515999999993,6.04063000000002,TRUE,2.04553375417224
9,"2793","Karyour",0,NA,-9.93087,6.04667,"Grand Bassa","LR04","St. John River City","LR0408","Liberia","LR","LBR","LBR004","LBR004008",-9.93086999999997,6.04667000000006,TRUE,1.97180765517539
9,"2794","Boegbah",0,NA,-9.93088,6.04671,"Grand Bassa","LR04","St. John River City","LR0408","Liberia","LR","LBR","LBR004","LBR004008",-9.93087999999995,6.04671000000008,TRUE,1.88285726745096
9,"2803","Laffiah",0,NA,-9.949,6.04889,"Grand Bassa","LR04","St. John River City","LR0408","Liberia","LR","LBR","LBR004","LBR004008",-9.94899999999996,6.04889000000003,TRUE,1.80089168998612
9,"2805","Amos Cleon",0,NA,-9.94422,6.04924,"Grand Bassa","LR04","St. John River City","LR0408","Liberia","LR","LBR","LBR004","LBR004008",-9.94421999999997,6.04924000000005,TRUE,1.60264501868703
9,"2814","Pastor",0,NA,-9.93877,6.05115,"Grand Bassa","LR04","St. John River City","LR0408","Liberia","LR","LBR","LBR004","LBR004008",-9.93876999999998,6.05115000000006,TRUE,1.33269002010527
9,"2824","Boe",0,NA,-9.92126,6.05434,"Grand Bassa","LR04","St. John River City","LR0408","Liberia","LR","LBR","LBR004","LBR004008",-9.92125999999996,6.05434000000002,TRUE,1.28045858942989
9,"2831","Togar",0,NA,-9.93373,6.05585,"Grand Bassa","LR04","St. John River City","LR0408","Liberia","LR","LBR","LBR004","LBR004008",-9.93372999999997,6.05585000000002,TRUE,1.26535386102785
9,"2845","Gbewillie",0,NA,-9.95048,6.05925,"Grand Bassa","LR04","St. John River City","LR0408","Liberia","LR","LBR","LBR004","LBR004008",-9.95047999999997,6.05925000000002,TRUE,0.717209070838222
9,"2853","Juah",0,NA,-9.941,6.06108,"Grand Bassa","LR04","St. John River City","LR0408","Liberia","LR","LBR","LBR004","LBR004008",-9.94099999999997,6.06108000000006,TRUE,0.712682727687681
9,"2857","Noway",0,NA,-9.91721,6.06246,"Grand Bassa","LR04","St. John River City","LR0408","Liberia","LR","LBR","LBR004","LBR004008",-9.91720999999995,6.06246000000004,TRUE,0.641832179866595
9,"2872","Leecoil",0,NA,-9.9286,6.06647,"Grand Bassa","LR04","St. John River City","LR0408","Liberia","LR","LBR","LBR004","LBR004008",-9.92859999999996,6.06647000000004,TRUE,0.35066981820033
10,"2647","Six New Camp",0,NA,-9.77934,6.01778,"Grand Bassa","LR04","District # 4","LR0405","Liberia","LR","LBR","LBR004","LBR004005",-9.77933999999993,6.01778000000007,TRUE,3.97621497999455
10,"2692","Estate 2 Bongolo",0,NA,-9.79118,6.02717,"Grand Bassa","LR04","District # 3","LR0404","Liberia","LR","LBR","LBR004","LBR004004",-9.79117999999994,6.02717000000007,TRUE,3.82258284003236
10,"2712","Cattle Bahn Camp",0,NA,-9.75896,6.03039,"Grand Bassa","LR04","District # 4","LR0405","Liberia","LR","LBR","LBR004","LBR004005",-9.75895999999995,6.03039000000007,TRUE,3.78314551712575
10,"2745","Division 4.1 Office",0,NA,-9.74918,6.03762,"Grand Bassa","LR04","District # 4","LR0405","Liberia","LR","LBR","LBR004","LBR004005",-9.74917999999997,6.03762000000006,TRUE,3.61030803711163
10,"2767","Six Old Camp",0,NA,-9.7728,6.0408,"Grand Bassa","LR04","District # 3","LR0404","Liberia","LR","LBR","LBR004","LBR004004",-9.77279999999996,6.04080000000005,TRUE,3.49146707337793
10,"2795","Bear -Bear Camp",0,NA,-9.74817,6.04695,"Grand Bassa","LR04","District # 4","LR0405","Liberia","LR","LBR","LBR004","LBR004005",-9.74816999999996,6.04695000000004,TRUE,3.01453593222909
10,"2859","Djueh Camp",0,NA,-9.77246,6.0626,"Grand Bassa","LR04","District # 3","LR0404","Liberia","LR","LBR","LBR004","LBR004004",-9.77245999999997,6.06260000000003,TRUE,2.92652394892576
10,"2871","Kpain Camp",0,NA,-9.79174,6.06612,"Grand Bassa","LR04","District # 3","LR0404","Liberia","LR","LBR","LBR004","LBR004004",-9.79173999999995,6.06612000000007,TRUE,2.84153668446575
10,"2895","Division 1.1 Office",0,NA,-9.74269,6.07268,"Grand Bassa","LR04","District # 3","LR0404","Liberia","LR","LBR","LBR004","LBR004004",-9.74268999999998,6.07268000000005,TRUE,2.80070923814506
10,"2904","Zeanweah Camp",0,NA,-9.75661,6.07408,"Grand Bassa","LR04","District # 3","LR0404","Liberia","LR","LBR","LBR004","LBR004004",-9.75660999999997,6.07408000000004,TRUE,2.74293835985649
10,"2931","Division 2.3 Office",0,NA,-9.77205,6.07996,"Grand Bassa","LR04","District # 3","LR0404","Liberia","LR","LBR","LBR004","LBR004004",-9.77204999999998,6.07996000000003,TRUE,2.59456670992609
10,"2949","David Gboh Camp",0,NA,-9.76509,6.08376,"Grand Bassa","LR04","District # 3","LR0404","Liberia","LR","LBR","LBR004","LBR004004",-9.76508999999993,6.08376000000004,TRUE,1.33570907800325
10,"2958","3 Old Camp",0,NA,-9.77718,6.08635,"Grand Bassa","LR04","District # 3","LR0404","Liberia","LR","LBR","LBR004","LBR004004",-9.77717999999993,6.08635000000004,TRUE,1.10581183961355
11,"3392","Barzon Village",0,NA,-10.33534,6.16606,"Grand Bassa","LR04","Owensgrove","LR0407","Liberia","LR","LBR","LBR004","LBR004007",-10.33534,6.16606000000007,TRUE,3.82359163141975
11,"3402","Palace Village",0,NA,-10.31911,6.1679,"Grand Bassa","LR04","Owensgrove","LR0407","Liberia","LR","LBR","LBR004","LBR004007",-10.31911,6.16790000000003,TRUE,3.56402350551268
11,"3438","Nycgweh",0,NA,-10.34057,6.17319,"Grand Bassa","LR04","Owensgrove","LR0407","Liberia","LR","LBR","LBR004","LBR004007",-10.34057,6.17319000000003,TRUE,3.46446736846819
11,"3488","Kugbeh Village",0,NA,-10.33596,6.18527,"Grand Bassa","LR04","Owensgrove","LR0407","Liberia","LR","LBR","LBR004","LBR004007",-10.3359599999999,6.18527000000006,TRUE,3.33758157406866
11,"3501","Koezohn Village",0,NA,-10.30929,6.18783,"Grand Bassa","LR04","Owensgrove","LR0407","Liberia","LR","LBR","LBR004","LBR004007",-10.30929,6.18783000000008,TRUE,3.06060992309253
11,"3550","Cole's Village",0,NA,-10.33951,6.19608,"Grand Bassa","LR04","Owensgrove","LR0407","Liberia","LR","LBR","LBR004","LBR004007",-10.33951,6.19608000000005,TRUE,3.03711582502101
11,"3617","Garmah Village",0,NA,-10.33068,6.20704,"Grand Bassa","LR04","Owensgrove","LR0407","Liberia","LR","LBR","LBR004","LBR004007",-10.33068,6.20704000000006,TRUE,2.98448762307934
11,"3621","Dougbah",0,NA,-10.34151,6.20776,"Grand Bassa","LR04","Owensgrove","LR0407","Liberia","LR","LBR","LBR004","LBR004007",-10.34151,6.20776000000006,TRUE,2.3209271317502
11,"3627","Bar Village",0,NA,-10.32437,6.20837,"Grand Bassa","LR04","Owensgrove","LR0407","Liberia","LR","LBR","LBR004","LBR004007",-10.3243699999999,6.20837000000006,TRUE,2.22945492071544
11,"3691","Bean's",0,NA,-10.34756,6.21886,"Grand Bassa","LR04","Owensgrove","LR0407","Liberia","LR","LBR","LBR004","LBR004007",-10.3475599999999,6.21886000000006,TRUE,1.77527082101608
11,"3694","Troyahbarh village",0,NA,-10.33073,6.21971,"Grand Bassa","LR04","Owensgrove","LR0407","Liberia","LR","LBR","LBR004","LBR004007",-10.33073,6.21971000000002,TRUE,1.62564402983076
11,"3714","Sailama Village",0,NA,-10.33153,6.22372,"Grand Bassa","LR04","Owensgrove","LR0407","Liberia","LR","LBR","LBR004","LBR004007",-10.3315299999999,6.22372000000007,TRUE,0.946102424932708
11,"3744","Borbor Village",0,NA,-10.33046,6.2268,"Grand Bassa","LR04","Owensgrove","LR0407","Liberia","LR","LBR","LBR004","LBR004007",-10.33046,6.22680000000003,TRUE,0.315257758889723
12,"3433","Wrue-Wah Village",0,NA,-10.17805,6.17233,"Grand Bassa","LR04","District # 1","LR0402","Liberia","LR","LBR","LBR004","LBR004002",-10.1780499999999,6.17233000000004,TRUE,2.49483784661854
12,"3440","Peter Hata Village",0,NA,-10.17955,6.17404,"Grand Bassa","LR04","District # 1","LR0402","Liberia","LR","LBR","LBR004","LBR004002",-10.1795499999999,6.17404000000005,TRUE,2.33934142475965
12,"3444","Zyne-Where Village",0,NA,-10.17855,6.17446,"Grand Bassa","LR04","District # 1","LR0402","Liberia","LR","LBR","LBR004","LBR004002",-10.17855,6.17446000000007,TRUE,2.32254296512928
12,"3451","Ruben Smith",0,NA,-10.17931,6.17647,"Grand Bassa","LR04","District # 1","LR0402","Liberia","LR","LBR","LBR004","LBR004002",-10.1793099999999,6.17647000000005,TRUE,2.15236732701229
12,"3453","Johnny Garyah",0,NA,-10.17377,6.17735,"Grand Bassa","LR04","District # 1","LR0402","Liberia","LR","LBR","LBR004","LBR004002",-10.1737699999999,6.17735000000005,TRUE,2.09242664260675
12,"3460","Beh",0,NA,-10.17857,6.17853,"Grand Bassa","LR04","District # 1","LR0402","Liberia","LR","LBR","LBR004","LBR004002",-10.17857,6.17853000000002,TRUE,2.00677545256758
12,"3475","Hard Time Village",0,NA,-10.17721,6.18284,"Grand Bassa","LR04","District # 1","LR0402","Liberia","LR","LBR","LBR004","LBR004002",-10.1772099999999,6.18284000000006,TRUE,1.88273807943678
12,"3567","Goesuah",0,NA,-10.17197,6.19803,"Grand Bassa","LR04","District # 1","LR0402","Liberia","LR","LBR","LBR004","LBR004002",-10.1719699999999,6.19803000000007,TRUE,1.79070785680605
12,"3571","John Clarke Village",0,NA,-10.16806,6.19844,"Grand Bassa","LR04","District # 1","LR0402","Liberia","LR","LBR","LBR004","LBR004002",-10.16806,6.19844000000006,TRUE,1.64553480316632
12,"3579","Tweah Zammes",0,NA,-10.16514,6.20005,"Grand Bassa","LR04","District # 1","LR0402","Liberia","LR","LBR","LBR004","LBR004002",-10.16514,6.20005000000003,TRUE,1.47691324383938
12,"3592","Woekpeh Juah",0,NA,-10.16144,6.20317,"Grand Bassa","LR04","District # 1","LR0402","Liberia","LR","LBR","LBR004","LBR004002",-10.16144,6.20317000000006,TRUE,1.15675356832133
12,"3602","Thomas Vonzih",0,NA,-10.15873,6.20451,"Grand Bassa","LR04","District # 1","LR0402","Liberia","LR","LBR","LBR004","LBR004002",-10.1587299999999,6.20451000000003,TRUE,1.10813505316391
12,"3665","Sayli Village",0,NA,-10.16567,6.21299,"Grand Bassa","LR04","District # 1","LR0402","Liberia","LR","LBR","LBR004","LBR004002",-10.16567,6.21299000000005,TRUE,0.73700626584393
13,"3336","Worldwid  Mission",0,NA,-10.00147,6.15823,"Grand Bassa","LR04","District # 2","LR0403","Liberia","LR","LBR","LBR004","LBR004003",-10.0014699999999,6.15823000000006,TRUE,4.13010245491559
13,"3350","Trysee Village",0,NA,-10.00325,6.15999,"Grand Bassa","LR04","District # 2","LR0403","Liberia","LR","LBR","LBR004","LBR004003",-10.00325,6.15999000000005,TRUE,3.88124634127523
13,"3457","Kolako Village",0,NA,-10.03119,6.17832,"Grand Bassa","LR04","District # 2","LR0403","Liberia","LR","LBR","LBR004","LBR004003",-10.03119,6.17832000000004,TRUE,3.86796246885454
13,"3462","Glebah / Worfour Vill",0,NA,-9.98246,6.17952,"Grand Bassa","LR04","District # 2","LR0403","Liberia","LR","LBR","LBR004","LBR004003",-9.98245999999995,6.17952000000002,TRUE,3.84289082571082
13,"3508","Karyou Village",0,NA,-10.03489,6.18874,"Grand Bassa","LR04","District # 2","LR0403","Liberia","LR","LBR","LBR004","LBR004003",-10.03489,6.18874000000005,TRUE,3.63691999412053
13,"3517","Charley Gio / Kpakpel",0,NA,-10.00772,6.1908,"Grand Bassa","LR04","District # 2","LR0403","Liberia","LR","LBR","LBR004","LBR004003",-10.0077199999999,6.19080000000002,TRUE,3.59514606154754
13,"3565","Krankie Village",0,NA,-9.99039,6.19781,"Grand Bassa","LR04","District # 2","LR0403","Liberia","LR","LBR","LBR004","LBR004003",-9.99038999999993,6.19781000000006,TRUE,3.38638451421573
13,"3577","Weamorgar",0,NA,-10.012,6.19991,"Grand Bassa","LR04","District # 2","LR0403","Liberia","LR","LBR","LBR004","LBR004003",-10.0119999999999,6.19991000000005,TRUE,2.69766821489993
13,"3584","Jacob Village",0,NA,-10.04834,6.20139,"Grand Bassa","LR04","District # 2","LR0403","Liberia","LR","LBR","LBR004","LBR004003",-10.0483399999999,6.20139000000006,TRUE,2.49314342405431
13,"3612","Dee Village",0,NA,-10.04202,6.20634,"Grand Bassa","LR04","District # 2","LR0403","Liberia","LR","LBR","LBR004","LBR004003",-10.04202,6.20634000000007,TRUE,2.32902598768445
13,"3629","Gurtor Village",0,NA,-10.01742,6.20865,"Grand Bassa","LR04","District # 2","LR0403","Liberia","LR","LBR","LBR004","LBR004003",-10.01742,6.20865000000003,TRUE,1.73299935589811
13,"3680","Payone Village",0,NA,-10.03697,6.21661,"Grand Bassa","LR04","District # 2","LR0403","Liberia","LR","LBR","LBR004","LBR004003",-10.0369699999999,6.21661000000006,TRUE,0.782701891255013
13,"3732","Matada Village",0,NA,-10.02023,6.22564,"Grand Bassa","LR04","District # 2","LR0403","Liberia","LR","LBR","LBR004","LBR004003",-10.02023,6.22564000000006,TRUE,0.777150637735716
14,"3346","Bethlehem Village",0,NA,-9.84148,6.15909,"Grand Bassa","LR04","District # 3","LR0404","Liberia","LR","LBR","LBR004","LBR004004",-9.84147999999993,6.15909000000005,TRUE,3.95793825031234
14,"3439","Kpalimue",0,NA,-9.85787,6.17341,"Grand Bassa","LR04","District # 2","LR0403","Liberia","LR","LBR","LBR004","LBR004003",-9.85786999999993,6.17341000000005,TRUE,3.83982522877027
14,"3474","Tokpah Village",0,NA,-9.86017,6.18265,"Grand Bassa","LR04","District # 2","LR0403","Liberia","LR","LBR","LBR004","LBR004003",-9.86016999999993,6.18265000000002,TRUE,3.60032127947559
14,"3483","Bozohn",0,NA,-9.81866,6.18381,"Grand Bassa","LR04","District # 3","LR0404","Liberia","LR","LBR","LBR004","LBR004004",-9.81865999999997,6.18381000000005,TRUE,3.25632748082252
14,"3507","Lolayah Village",0,NA,-9.8811,6.18869,"Grand Bassa","LR04","District # 2","LR0403","Liberia","LR","LBR","LBR004","LBR004003",-9.88109999999995,6.18869000000007,TRUE,3.14792024371883
14,"3509","Bigboy Village",0,NA,-9.87564,6.18878,"Grand Bassa","LR04","District # 2","LR0403","Liberia","LR","LBR","LBR004","LBR004003",-9.87563999999998,6.18878000000007,TRUE,2.65923521219927
14,"3524","Gorworh Village",0,NA,-9.85845,6.19172,"Grand Bassa","LR04","District # 2","LR0403","Liberia","LR","LBR","LBR004","LBR004003",-9.85844999999995,6.19172000000003,TRUE,2.49393470824989
14,"3553","Wrehyou",0,NA,-9.83208,6.19616,"Grand Bassa","LR04","District # 3","LR0404","Liberia","LR","LBR","LBR004","LBR004004",-9.83207999999996,6.19616000000002,TRUE,2.29072583644206
14,"3589","Zuagar",0,NA,-9.84368,6.20243,"Grand Bassa","LR04","District # 3","LR0404","Liberia","LR","LBR","LBR004","LBR004004",-9.84367999999995,6.20243000000005,TRUE,2.23158182292777
14,"3632","Samuel Village",0,NA,-9.86067,6.20885,"Grand Bassa","LR04","District # 2","LR0403","Liberia","LR","LBR","LBR004","LBR004003",-9.86066999999997,6.20885000000004,TRUE,1.96864469079173
14,"3668","Painyoucom Village",0,NA,-9.84361,6.2142,"Grand Bassa","LR04","District # 2","LR0403","Liberia","LR","LBR","LBR004","LBR004003",-9.84360999999996,6.21420000000006,TRUE,1.48094757171597
14,"3669","Sulonteh Village",0,NA,-9.87098,6.21452,"Grand Bassa","LR04","District # 2","LR0403","Liberia","LR","LBR","LBR004","LBR004003",-9.87097999999997,6.21452000000005,TRUE,1.37055151515783
14,"3731","Noryougbah Village",0,NA,-9.8467,6.2254,"Grand Bassa","LR04","District # 2","LR0403","Liberia","LR","LBR","LBR004","LBR004003",-9.84669999999994,6.22540000000004,TRUE,0.730451613985997
15,"3396","Weebo / Zedrew",0,NA,-9.72008,6.16632,"Grand Bassa","LR04","District # 3","LR0404","Liberia","LR","LBR","LBR004","LBR004004",-9.72007999999994,6.16632000000004,TRUE,4.88560695934142
15,"3420","George Briggs / Tuku",0,NA,-9.71402,6.16998,"Grand Bassa","LR04","District # 3","LR0404","Liberia","LR","LBR","LBR004","LBR004004",-9.71401999999995,6.16998000000007,TRUE,4.8122202742862
15,"3512","Wredyu",0,NA,-9.71876,6.18913,"Grand Bassa","LR04","District # 3","LR0404","Liberia","LR","LBR","LBR004","LBR004004",-9.71875999999997,6.18913000000003,TRUE,4.62004189097643
15,"3533","Kargar / Yard",0,NA,-9.64907,6.19257,"Grand Bassa","LR04","District # 3","LR0404","Liberia","LR","LBR","LBR004","LBR004004",-9.64906999999994,6.19257000000005,TRUE,4.60523315530399
15,"3670","Gud",0,NA,-9.66366,6.21464,"Grand Bassa","LR04","District # 3","LR0404","Liberia","LR","LBR","LBR004","LBR004004",-9.66365999999994,6.21464000000003,TRUE,4.50113066479597
15,"3672","Manideh / Dowher",0,NA,-9.6544,6.21528,"Grand Bassa","LR04","District # 3","LR0404","Liberia","LR","LBR","LBR004","LBR004004",-9.65439999999995,6.21528000000006,TRUE,4.49137550235757
15,"3708","Zlowein",0,NA,-9.67045,6.22261,"Grand Bassa","LR04","District # 3","LR0404","Liberia","LR","LBR","LBR004","LBR004004",-9.67044999999996,6.22261000000003,TRUE,4.45065292527637
15,"3713","Dahn / Flanke",0,NA,-9.72194,6.2235,"Grand Bassa","LR04","District # 3","LR0404","Liberia","LR","LBR","LBR004","LBR004004",-9.72193999999996,6.22350000000006,TRUE,4.25111873368982
15,"3723","Zorwein",0,NA,-9.67137,6.22441,"Grand Bassa","LR04","District # 3","LR0404","Liberia","LR","LBR","LBR004","LBR004004",-9.67136999999997,6.22441000000003,TRUE,3.99725852763048
15,"3758","Borbor's",0,NA,-9.67788,6.22985,"Grand Bassa","LR04","District # 3","LR0404","Liberia","LR","LBR","LBR004","LBR004004",-9.67787999999996,6.22985000000006,TRUE,3.88221704881734
15,"3774","Garmana Village",0,NA,-9.67148,6.23278,"Grand Bassa","LR04","District # 3","LR0404","Liberia","LR","LBR","LBR004","LBR004004",-9.67147999999997,6.23278000000005,TRUE,3.72882026541451
15,"3780","Kofa Gborgar",0,NA,-9.68753,6.23347,"Grand Bassa","LR04","District # 3","LR0404","Liberia","LR","LBR","LBR004","LBR004004",-9.68752999999998,6.23347000000007,TRUE,3.72382948902669
15,"3792","Kona",0,NA,-9.69182,6.23501,"Grand Bassa","LR04","District # 3","LR0404","Liberia","LR","LBR","LBR004","LBR004004",-9.69181999999995,6.23501000000005,TRUE,3.24514992542981
16,"3235","Baye",0,NA,-9.50432,6.14081,"Grand Bassa","LR04","District # 4","LR0405","Liberia","LR","LBR","LBR004","LBR004005",-9.50431999999995,6.14081000000004,TRUE,7.01276371550269
16,"3287","Benzohn",0,NA,-9.51006,6.15019,"Grand Bassa","LR04","District # 4","LR0405","Liberia","LR","LBR","LBR004","LBR004005",-9.51005999999995,6.15019000000007,TRUE,6.96775069402976
16,"3304","Gueh",0,NA,-9.52977,6.1528,"Grand Bassa","LR04","District # 4","LR0405","Liberia","LR","LBR","LBR004","LBR004005",-9.52976999999993,6.15280000000007,TRUE,6.49371173823135
16,"3329","Mannah Whea Village",0,NA,-9.56908,6.15733,"Grand Bassa","LR04","District # 4","LR0405","Liberia","LR","LBR","LBR004","LBR004005",-9.56907999999993,6.15733000000006,TRUE,6.34173048132536
16,"3353","Refaco Camp",0,NA,-9.54247,6.16029,"Grand Bassa","LR04","District # 4","LR0405","Liberia","LR","LBR","LBR004","LBR004005",-9.54246999999998,6.16029000000003,TRUE,6.3264461784923
16,"3355","Kahyah",0,NA,-9.48831,6.1606,"Grand Bassa","LR04","District # 4","LR0405","Liberia","LR","LBR","LBR004","LBR004005",-9.48830999999996,6.16060000000004,TRUE,6.08765757537505
16,"3419","Bold Dollar",0,NA,-9.55812,6.16995,"Grand Bassa","LR04","District # 4","LR0405","Liberia","LR","LBR","LBR004","LBR004005",-9.55811999999997,6.16995000000003,TRUE,5.64011728679373
16,"3470","Farr",0,NA,-9.57202,6.18068,"Grand Bassa","LR04","District # 4","LR0405","Liberia","LR","LBR","LBR004","LBR004005",-9.57201999999995,6.18068000000005,TRUE,5.58625949266662
16,"3523","Morris Gbehgbeh",0,NA,-9.58608,6.19161,"Grand Bassa","LR04","District # 3","LR0404","Liberia","LR","LBR","LBR004","LBR004004",-9.58607999999998,6.19161000000003,TRUE,5.13888211656261
16,"3693","Willie",0,NA,-9.57828,6.21942,"Grand Bassa","LR04","District # 3","LR0404","Liberia","LR","LBR","LBR004","LBR004004",-9.57827999999995,6.21942000000007,TRUE,5.12812633469008
16,"3791","Boue Village",0,NA,-9.57472,6.23488,"Grand Bassa","LR04","District # 3","LR0404","Liberia","LR","LBR","LBR004","LBR004004",-9.57471999999996,6.23488000000003,TRUE,4.48459029731674
16,"3827","Juah's",0,NA,-9.53927,6.24239,"Grand Bassa","LR04","District # 3","LR0404","Liberia","LR","LBR","LBR004","LBR004004",-9.53926999999993,6.24239000000006,TRUE,4.26575242680399
16,"3831","Wodorgbah / Nimely Vi",0,NA,-9.56627,6.24339,"Grand Bassa","LR04","District # 3","LR0404","Liberia","LR","LBR","LBR004","LBR004004",-9.56626999999997,6.24339000000003,TRUE,4.0105777414083
17,"4098","Buegbo",0,NA,-10.25129,6.29394,"Grand Bassa","LR04","District # 1","LR0402","Liberia","LR","LBR","LBR004","LBR004002",-10.2512899999999,6.29394000000002,TRUE,4.93049439521752
17,"4116","Kiray Town/Buegba Vil",0,NA,-10.27449,6.2968,"Grand Bassa","LR04","District # 1","LR0402","Liberia","LR","LBR","LBR004","LBR004002",-10.27449,6.29680000000008,TRUE,4.64901151521042
17,"4176","Gio Village",0,NA,-10.27862,6.31131,"Grand Bassa","LR04","District # 1","LR0402","Liberia","LR","LBR","LBR004","LBR004002",-10.2786199999999,6.31131000000005,TRUE,4.49373874662359
17,"4244","Nyuda",0,NA,-10.21874,6.32795,"Grand Bassa","LR04","District # 1","LR0402","Liberia","LR","LBR","LBR004","LBR004002",-10.21874,6.32795000000004,TRUE,4.47129160664065
17,"4321","Yanmoh",0,NA,-10.22632,6.34267,"Grand Bassa","LR04","District # 1","LR0402","Liberia","LR","LBR","LBR004","LBR004002",-10.2263199999999,6.34267000000006,TRUE,4.37046085987387
17,"4333","Kpaliyelah",0,NA,-10.25792,6.34487,"Grand Bassa","LR04","District # 1","LR0402","Liberia","LR","LBR","LBR004","LBR004002",-10.25792,6.34487000000007,TRUE,4.28826029539485
17,"4357","Zinc Kitchen",0,NA,-10.26585,6.34956,"Grand Bassa","LR04","District # 1","LR0402","Liberia","LR","LBR","LBR004","LBR004002",-10.2658499999999,6.34956000000005,TRUE,4.05857837358099
17,"4409","Kpannah/David",0,NA,-10.21987,6.35725,"Grand Bassa","LR04","District # 1","LR0402","Liberia","LR","LBR","LBR004","LBR004002",-10.21987,6.35725000000002,TRUE,4.05360267752162
17,"4418","Varney",0,NA,-10.22772,6.3583,"Grand Bassa","LR04","District # 1","LR0402","Liberia","LR","LBR","LBR004","LBR004002",-10.22772,6.35830000000004,TRUE,3.98859950101625
17,"4420","Robert Cebal",0,NA,-10.2237,6.35841,"Grand Bassa","LR04","District # 1","LR0402","Liberia","LR","LBR","LBR004","LBR004002",-10.2237,6.35841000000005,TRUE,3.61701139370012
17,"4442","David",0,NA,-10.23535,6.36287,"Grand Bassa","LR04","District # 1","LR0402","Liberia","LR","LBR","LBR004","LBR004002",-10.2353499999999,6.36287000000004,TRUE,3.39382550598644
17,"4452","Bono/Daklhere Village",0,NA,-10.23713,6.36411,"Grand Bassa","LR04","District # 1","LR0402","Liberia","LR","LBR","LBR004","LBR004002",-10.23713,6.36411000000004,TRUE,1.95300272139676
17,"4481","Douweh/Wheeto Town",0,NA,-10.26923,6.36805,"Grand Bassa","LR04","District # 1","LR0402","Liberia","LR","LBR","LBR004","LBR004002",-10.2692299999999,6.36805000000004,TRUE,1.21938349326555
18,"4121","Fred",0,NA,-10.09515,6.29821,"Grand Bassa","LR04","District # 1","LR0402","Liberia","LR","LBR","LBR004","LBR004002",-10.0951499999999,6.29821000000004,TRUE,3.94089887863018
18,"4149","Whemyou",0,NA,-10.10639,6.30312,"Grand Bassa","LR04","District # 1","LR0402","Liberia","LR","LBR","LBR004","LBR004002",-10.10639,6.30312000000004,TRUE,3.64709364921896
18,"4215","Gber",0,NA,-10.09143,6.32006,"Grand Bassa","LR04","District # 1","LR0402","Liberia","LR","LBR","LBR004","LBR004002",-10.0914299999999,6.32006000000007,TRUE,3.60528690681952
18,"4217","New Gbanga",0,NA,-10.07776,6.32055,"Grand Bassa","LR04","District # 1","LR0402","Liberia","LR","LBR","LBR004","LBR004002",-10.07776,6.32055000000003,TRUE,3.03806256633148
18,"4240","Isaac",0,NA,-10.106,6.3275,"Grand Bassa","LR04","District # 1","LR0402","Liberia","LR","LBR","LBR004","LBR004002",-10.1059999999999,6.32750000000004,TRUE,2.9241037362908
18,"4246","Old Gbanga",0,NA,-10.08982,6.32814,"Grand Bassa","LR04","District # 1","LR0402","Liberia","LR","LBR","LBR004","LBR004002",-10.08982,6.32814000000008,TRUE,2.78809508302232
18,"4259","Fuafua-Weon",0,NA,-10.10114,6.33161,"Grand Bassa","LR04","District # 1","LR0402","Liberia","LR","LBR","LBR004","LBR004002",-10.1011399999999,6.33161000000007,TRUE,2.65315641104151
18,"4269","Gerneo",0,NA,-10.12192,6.33353,"Grand Bassa","LR04","District # 1","LR0402","Liberia","LR","LBR","LBR004","LBR004002",-10.1219199999999,6.33353000000005,TRUE,2.59216607422412
18,"4351","Bai",0,NA,-10.1164,6.34792,"Grand Bassa","LR04","District # 1","LR0402","Liberia","LR","LBR","LBR004","LBR004002",-10.1163999999999,6.34792000000004,TRUE,2.45186392119212
18,"4362","Bai mission",0,NA,-10.11313,6.3501,"Grand Bassa","LR04","District # 1","LR0402","Liberia","LR","LBR","LBR004","LBR004002",-10.11313,6.35010000000005,TRUE,1.5893115312063
18,"4396","Nado",0,NA,-10.10587,6.35486,"Grand Bassa","LR04","District # 1","LR0402","Liberia","LR","LBR","LBR004","LBR004002",-10.10587,6.35486000000003,TRUE,1.35776212078379
18,"4427","Worhn",0,NA,-10.10168,6.36061,"Grand Bassa","LR04","District # 1","LR0402","Liberia","LR","LBR","LBR004","LBR004002",-10.1016799999999,6.36061000000007,TRUE,0.889981855371795
18,"4453","Duayou",0,NA,-10.0828,6.36428,"Grand Bassa","LR04","District # 1","LR0402","Liberia","LR","LBR","LBR004","LBR004002",-10.0828,6.36428000000006,TRUE,0.671794242699312
19,"4181","Goegar Village",0,NA,-9.94417,6.31249,"Grand Bassa","LR04","District # 2","LR0403","Liberia","LR","LBR","LBR004","LBR004003",-9.94416999999993,6.31249000000003,TRUE,4.05112845362043
19,"4197","Ballah Village",0,NA,-9.94497,6.31667,"Grand Bassa","LR04","District # 2","LR0403","Liberia","LR","LBR","LBR004","LBR004003",-9.94496999999996,6.31667000000004,TRUE,3.18468216212801
19,"4221","Gargar's Village",0,NA,-9.91556,6.32207,"Grand Bassa","LR04","District # 2","LR0403","Liberia","LR","LBR","LBR004","LBR004003",-9.91555999999997,6.32207000000005,TRUE,2.85079052281402
19,"4228","Dolo",0,NA,-9.92753,6.32355,"Grand Bassa","LR04","District # 2","LR0403","Liberia","LR","LBR","LBR004","LBR004003",-9.92752999999993,6.32355000000007,TRUE,2.80370406314549
19,"4229","Zeon",0,NA,-9.91002,6.32358,"Grand Bassa","LR04","District # 2","LR0403","Liberia","LR","LBR","LBR004","LBR004003",-9.91001999999997,6.32358000000005,TRUE,2.65571121346569
19,"4251","Nyakpah Village",0,NA,-9.93952,6.32911,"Grand Bassa","LR04","District # 2","LR0403","Liberia","LR","LBR","LBR004","LBR004003",-9.93951999999996,6.32911000000007,TRUE,2.52521973144435
19,"4260","Budu",0,NA,-9.92256,6.33168,"Grand Bassa","LR04","District # 2","LR0403","Liberia","LR","LBR","LBR004","LBR004003",-9.92255999999998,6.33168000000006,TRUE,2.34533083554216
19,"4287","Gaye Flomo",0,NA,-9.92382,6.33652,"Grand Bassa","LR04","District # 2","LR0403","Liberia","LR","LBR","LBR004","LBR004003",-9.92381999999998,6.33652000000006,TRUE,2.30350323430216
19,"4326","Gbiahgaye",0,NA,-9.935,6.3437,"Grand Bassa","LR04","District # 2","LR0403","Liberia","LR","LBR","LBR004","LBR004003",-9.93499999999995,6.34370000000007,TRUE,1.29930300891457
19,"4376","Glabo Village #1",0,NA,-9.95157,6.35191,"Grand Bassa","LR04","District # 2","LR0403","Liberia","LR","LBR","LBR004","LBR004003",-9.95156999999995,6.35191000000003,TRUE,1.20024955006167
19,"4400","Waygron Village",0,NA,-9.94089,6.35534,"Grand Bassa","LR04","District # 2","LR0403","Liberia","LR","LBR","LBR004","LBR004003",-9.94088999999997,6.35534000000007,TRUE,1.1081686708189
19,"4432","Kpu-Jimmy",0,NA,-9.92438,6.36126,"Grand Bassa","LR04","District # 2","LR0403","Liberia","LR","LBR","LBR004","LBR004003",-9.92437999999993,6.36126000000007,TRUE,1.07812720696867
19,"4489","Zahn",0,NA,-9.92307,6.36905,"Grand Bassa","LR04","District # 2","LR0403","Liberia","LR","LBR","LBR004","LBR004003",-9.92306999999994,6.36905000000007,TRUE,0.874448504908133
20,"4178","Karr's / Gbah Tumah",0,NA,-9.74091,6.31177,"Grand Bassa","LR04","District # 3","LR0404","Liberia","LR","LBR","LBR004","LBR004004",-9.74090999999993,6.31177000000002,TRUE,4.13040928312588
20,"4199","Yarkpah",0,NA,-9.73815,6.31679,"Grand Bassa","LR04","District # 3","LR0404","Liberia","LR","LBR","LBR004","LBR004004",-9.73814999999996,6.31679000000003,TRUE,4.11824263183967
20,"4236","Logan Village # 1",0,NA,-9.73553,6.3268,"Grand Bassa","LR04","District # 3","LR0404","Liberia","LR","LBR","LBR004","LBR004004",-9.73552999999993,6.32680000000005,TRUE,4.08369998587381
20,"4254","Logan",0,NA,-9.73473,6.33099,"Grand Bassa","LR04","District # 3","LR0404","Liberia","LR","LBR","LBR004","LBR004004",-9.73472999999996,6.33099000000004,TRUE,4.01289163705951
20,"4268","Gonoe / Garvah",0,NA,-9.80713,6.33337,"Grand Bassa","LR04","District # 2","LR0403","Liberia","LR","LBR","LBR004","LBR004003",-9.80712999999997,6.33337000000006,TRUE,4.01055959183803
20,"4284","Kaykay / Kpawoe / Bua",0,NA,-9.80105,6.33637,"Grand Bassa","LR04","District # 2","LR0403","Liberia","LR","LBR","LBR004","LBR004003",-9.80104999999998,6.33637000000004,TRUE,3.98876870702963
20,"4293","Juah's",0,NA,-9.80806,6.33726,"Grand Bassa","LR04","District # 2","LR0403","Liberia","LR","LBR","LBR004","LBR004003",-9.80805999999995,6.33726000000007,TRUE,3.59729352192669
20,"4320","Joemlue",0,NA,-9.73951,6.34237,"Grand Bassa","LR04","District # 3","LR0404","Liberia","LR","LBR","LBR004","LBR004004",-9.73950999999994,6.34237000000007,TRUE,3.52106190043189
20,"4335","Two Cent",0,NA,-9.79818,6.34507,"Grand Bassa","LR04","District # 2","LR0403","Liberia","LR","LBR","LBR004","LBR004003",-9.79817999999995,6.34507000000002,TRUE,3.34915543520708
20,"4342","Teewaygar Village",0,NA,-9.74363,6.34664,"Grand Bassa","LR04","District # 3","LR0404","Liberia","LR","LBR","LBR004","LBR004004",-9.74362999999994,6.34664000000004,TRUE,3.33116392011039
20,"4398","Gbenyan Town # 1",0,NA,-9.75305,6.35509,"Grand Bassa","LR04","District # 3","LR0404","Liberia","LR","LBR","LBR004","LBR004004",-9.75304999999997,6.35509000000008,TRUE,3.26512159644341
20,"4407","Gbenyan Town # 2",0,NA,-9.75615,6.35637,"Grand Bassa","LR04","District # 3","LR0404","Liberia","LR","LBR","LBR004","LBR004004",-9.75614999999993,6.35637000000003,TRUE,3.06831125968922
20,"4461","Bahn / Peter G.Sahn",0,NA,-9.76738,6.36549,"Grand Bassa","LR04","District # 2","LR0403","Liberia","LR","LBR","LBR004","LBR004003",-9.76737999999995,6.36549000000002,TRUE,2.97718843927623
21,"4163","John Kianue / Wee Zeo",0,NA,-9.65114,6.30607,"Grand Bassa","LR04","District # 3","LR0404","Liberia","LR","LBR","LBR004","LBR004004",-9.65113999999994,6.30607000000003,TRUE,5.72206534253614
21,"4174","Jah Fair",0,NA,-9.645,6.3107,"Grand Bassa","LR04","District # 3","LR0404","Liberia","LR","LBR","LBR004","LBR004004",-9.64499999999998,6.31070000000005,TRUE,5.62213015003933
21,"4201","Kiamue Giah",0,NA,-9.64519,6.31767,"Grand Bassa","LR04","District # 3","LR0404","Liberia","LR","LBR","LBR004","LBR004004",-9.64518999999996,6.31767000000002,TRUE,5.03657703977813
21,"4223","Goweh / John Nover",0,NA,-9.64333,6.32229,"Grand Bassa","LR04","District # 3","LR0404","Liberia","LR","LBR","LBR004","LBR004004",-9.64332999999993,6.32229000000007,TRUE,4.7737074043473
21,"4290","Barseegiah",0,NA,-9.63572,6.33694,"Grand Bassa","LR04","District # 3","LR0404","Liberia","LR","LBR","LBR004","LBR004004",-9.63571999999994,6.33694000000003,TRUE,4.75760386636289
21,"4375","Sawkpah",0,NA,-9.64701,6.35185,"Grand Bassa","LR04","District # 3","LR0404","Liberia","LR","LBR","LBR004","LBR004004",-9.64700999999997,6.35185000000007,TRUE,4.69496299111555
21,"4377","Winshue",0,NA,-9.65695,6.35216,"Grand Bassa","LR04","District # 3","LR0404","Liberia","LR","LBR","LBR004","LBR004004",-9.65694999999994,6.35216000000003,TRUE,4.42791033890794
21,"4443","James Pue",0,NA,-9.58627,6.36309,"Grand Bassa","LR04","District # 3","LR0404","Liberia","LR","LBR","LBR004","LBR004004",-9.58626999999996,6.36309000000006,TRUE,4.14735534651963
21,"4444","Jallah",0,NA,-9.62522,6.36371,"Grand Bassa","LR04","District # 3","LR0404","Liberia","LR","LBR","LBR004","LBR004004",-9.62521999999996,6.36371000000003,TRUE,4.13098503650249
21,"4480","Kassian Village",0,NA,-9.62428,6.3679,"Grand Bassa","LR04","District # 3","LR0404","Liberia","LR","LBR","LBR004","LBR004004",-9.62427999999994,6.36790000000002,TRUE,4.06868673246693
21,"4493","Momo",0,NA,-9.58068,6.36983,"Grand Bassa","LR04","District # 3","LR0404","Liberia","LR","LBR","LBR004","LBR004004",-9.58067999999997,6.36983000000004,TRUE,4.05150531078004
21,"4499","Garkpee",0,NA,-9.60483,6.37101,"Grand Bassa","LR04","District # 3","LR0404","Liberia","LR","LBR","LBR004","LBR004004",-9.60482999999994,6.37101000000007,TRUE,3.78116268442191
21,"4524","Manawon",0,NA,-9.62273,6.37447,"Grand Bassa","LR04","District # 3","LR0404","Liberia","LR","LBR","LBR004","LBR004004",-9.62272999999993,6.37447000000003,TRUE,3.02213554867597
22,"3992","Jackson",0,NA,-9.42494,6.27273,"Grand Bassa","LR04","District # 3","LR0404","Liberia","LR","LBR","LBR004","LBR004004",-9.42493999999994,6.27273000000002,TRUE,7.39066237047804
22,"4085","Larway / James Zoko",0,NA,-9.49237,6.2917,"Grand Bassa","LR04","District # 3","LR0404","Liberia","LR","LBR","LBR004","LBR004004",-9.49236999999994,6.29170000000005,TRUE,7.15902749287498
22,"4099","Dahn- Jimmy",0,NA,-9.42615,6.29407,"Grand Bassa","LR04","District # 3","LR0404","Liberia","LR","LBR","LBR004","LBR004004",-9.42614999999995,6.29407000000003,TRUE,6.90884733571447
22,"4129","Suah / Dolo",0,NA,-9.41038,6.29946,"Grand Bassa","LR04","District # 3","LR0404","Liberia","LR","LBR","LBR004","LBR004004",-9.41037999999998,6.29946000000007,TRUE,5.49870987655971
22,"4218","Geedyu",0,NA,-9.42705,6.32084,"Grand Bassa","LR04","District # 3","LR0404","Liberia","LR","LBR","LBR004","LBR004004",-9.42704999999995,6.32084000000003,TRUE,4.94470638233126
22,"4241","Kpohn",0,NA,-9.40288,6.32781,"Grand Bassa","LR04","District # 3","LR0404","Liberia","LR","LBR","LBR004","LBR004004",-9.40287999999993,6.32781000000006,TRUE,4.93023814498567
22,"4264","Boe-Wee",0,NA,-9.4529,6.33242,"Grand Bassa","LR04","District # 3","LR0404","Liberia","LR","LBR","LBR004","LBR004004",-9.45289999999994,6.33242000000007,TRUE,4.8478998669739
22,"4273","Zeh Village",0,NA,-9.47584,6.33451,"Grand Bassa","LR04","District # 3","LR0404","Liberia","LR","LBR","LBR004","LBR004004",-9.47583999999995,6.33451000000002,TRUE,3.66500952464321
22,"4305","Zohn",0,NA,-9.49052,6.34016,"Grand Bassa","LR04","District # 3","LR0404","Liberia","LR","LBR","LBR004","LBR004004",-9.49051999999995,6.34016000000003,TRUE,3.27172528209046
22,"4312","Charlie's / Morflemh",0,NA,-9.46496,6.34163,"Grand Bassa","LR04","District # 3","LR0404","Liberia","LR","LBR","LBR004","LBR004004",-9.46495999999996,6.34163000000007,TRUE,2.56794026133142
22,"4347","Wheazohn / Doun",0,NA,-9.43678,6.34739,"Grand Bassa","LR04","District # 3","LR0404","Liberia","LR","LBR","LBR004","LBR004004",-9.43677999999994,6.34739000000008,TRUE,2.23922134066133
22,"4372","Karpee",0,NA,-9.47426,6.35158,"Grand Bassa","LR04","District # 3","LR0404","Liberia","LR","LBR","LBR004","LBR004004",-9.47425999999996,6.35158000000007,TRUE,1.82983176833015
22,"4525","Gbodoe/ Goeh Village",0,NA,-9.49931,6.37448,"Grand Bassa","LR04","District # 3","LR0404","Liberia","LR","LBR","LBR004","LBR004004",-9.49930999999998,6.37448000000006,TRUE,0.749453640777745
23,"5115","Raccoon Village",0,NA,-10.18663,6.45065,"Grand Bassa","LR04","District # 1","LR0402","Liberia","LR","LBR","LBR004","LBR004002",-10.18663,6.45065000000005,TRUE,3.19337078653175
23,"5220","Matie / Sumo Village",0,NA,-10.17936,6.46161,"Grand Bassa","LR04","District # 1","LR0402","Liberia","LR","LBR","LBR004","LBR004002",-10.17936,6.46161000000006,TRUE,2.97629665555683
23,"5224","Yeah",0,NA,-10.19224,6.46186,"Grand Bassa","LR04","District # 1","LR0402","Liberia","LR","LBR","LBR004","LBR004002",-10.19224,6.46186000000006,TRUE,2.88862754081492
23,"5238","Gearge Ploms Village",0,NA,-10.18897,6.46327,"Grand Bassa","LR04","District # 1","LR0402","Liberia","LR","LBR","LBR004","LBR004002",-10.1889699999999,6.46327000000002,TRUE,2.84960071308418
23,"5239","Heneny Smith Village",0,NA,-10.17472,6.46334,"Grand Bassa","LR04","District # 1","LR0402","Liberia","LR","LBR","LBR004","LBR004002",-10.17472,6.46334000000007,TRUE,2.76784333183608
23,"5246","Blo-Wheon",0,NA,-10.15271,6.46396,"Grand Bassa","LR04","District # 1","LR0402","Liberia","LR","LBR","LBR004","LBR004002",-10.15271,6.46396000000004,TRUE,2.21353103773256
23,"5260","Dolemue",0,NA,-10.18592,6.46558,"Grand Bassa","LR04","District # 1","LR0402","Liberia","LR","LBR","LBR004","LBR004002",-10.18592,6.46558000000005,TRUE,2.16440558557758
23,"5280","Bindaghoh/Mobay Villa",0,NA,-10.18303,6.46735,"Grand Bassa","LR04","District # 1","LR0402","Liberia","LR","LBR","LBR004","LBR004002",-10.18303,6.46735000000007,TRUE,1.83695107346236
23,"5341","Paye Village",0,NA,-10.1517,6.47636,"Grand Bassa","LR04","District # 1","LR0402","Liberia","LR","LBR","LBR004","LBR004002",-10.1516999999999,6.47636000000006,TRUE,1.44633718685461
23,"5372","Paye Town/Framk Moeba",0,NA,-10.17552,6.47971,"Grand Bassa","LR04","District # 1","LR0402","Liberia","LR","LBR","LBR004","LBR004002",-10.1755199999999,6.47971000000007,TRUE,1.41582159335005
23,"5406","Bondo/Dukuly Village",0,NA,-10.20425,6.48286,"Grand Bassa","LR04","District # 1","LR0402","Liberia","LR","LBR","LBR004","LBR004002",-10.2042499999999,6.48286000000007,TRUE,1.24192850291754
23,"5505","Femah",0,NA,-10.19637,6.49271,"Grand Bassa","LR04","District # 1","LR0402","Liberia","LR","LBR","LBR004","LBR004002",-10.1963699999999,6.49271000000005,TRUE,1.05221994950988
23,"5518","Kolleh Jimmy/Congo",0,NA,-10.17362,6.49374,"Grand Bassa","LR04","District # 1","LR0402","Liberia","LR","LBR","LBR004","LBR004002",-10.17362,6.49374000000006,TRUE,0.599884680555668
24,"4840","Nahndoe",0,NA,-9.86265,6.4191,"Grand Bassa","LR04","District # 2","LR0403","Liberia","LR","LBR","LBR004","LBR004003",-9.86264999999997,6.41910000000007,TRUE,6.22758690188852
24,"4996","Gbeahgaveazohn",0,NA,-9.86,6.43739,"Grand Bassa","LR04","District # 2","LR0403","Liberia","LR","LBR","LBR004","LBR004003",-9.85999999999996,6.43739000000005,TRUE,5.5456459512262
24,"5023","Mudeh",0,NA,-9.85623,6.44044,"Grand Bassa","LR04","District # 2","LR0403","Liberia","LR","LBR","LBR004","LBR004003",-9.85622999999993,6.44044000000002,TRUE,4.84956300534174
24,"5034","Yahwea / Galawolo",0,NA,-9.8552,6.44133,"Grand Bassa","LR04","District # 2","LR0403","Liberia","LR","LBR","LBR004","LBR004003",-9.85519999999997,6.44133000000005,TRUE,4.18696955085416
24,"5073","David Crawford",0,NA,-9.85154,6.44532,"Grand Bassa","LR04","District # 2","LR0403","Liberia","LR","LBR","LBR004","LBR004003",-9.85153999999994,6.44532000000004,TRUE,3.98450441544185
24,"5087","Vlekpah",0,NA,-9.81794,6.44684,"Grand Bassa","LR04","District # 2","LR0403","Liberia","LR","LBR","LBR004","LBR004003",-9.81793999999996,6.44684000000007,TRUE,3.78450898606302
24,"5214","Garva",0,NA,-9.82405,6.4612,"Grand Bassa","LR04","District # 2","LR0403","Liberia","LR","LBR","LBR004","LBR004003",-9.82404999999994,6.46120000000008,TRUE,3.67425515043023
24,"5215","Bonnie Part",0,NA,-9.80364,6.46132,"Grand Bassa","LR04","District # 2","LR0403","Liberia","LR","LBR","LBR004","LBR004003",-9.80363999999997,6.46132000000006,TRUE,3.42296786709762
24,"5263","Gbogar / Daryou / Moo",0,NA,-9.84679,6.46596,"Grand Bassa","LR04","District # 2","LR0403","Liberia","LR","LBR","LBR004","LBR004003",-9.84678999999994,6.46596000000005,TRUE,3.33648883788164
24,"5337","Whenzohn",0,NA,-9.81606,6.47618,"Grand Bassa","LR04","District # 2","LR0403","Liberia","LR","LBR","LBR004","LBR004003",-9.81605999999994,6.47618000000006,TRUE,3.21679189345839
24,"5362","Doeneah Garway",0,NA,-9.83624,6.47811,"Grand Bassa","LR04","District # 2","LR0403","Liberia","LR","LBR","LBR004","LBR004003",-9.83623999999998,6.47811000000007,TRUE,2.10736180254924
24,"5373","Kpoe Village",0,NA,-9.82235,6.47974,"Grand Bassa","LR04","District # 2","LR0403","Liberia","LR","LBR","LBR004","LBR004003",-9.82234999999997,6.47974000000005,TRUE,1.79488910456846
24,"5378","Mamadee / Gbar Villag",0,NA,-9.83387,6.48014,"Grand Bassa","LR04","District # 2","LR0403","Liberia","LR","LBR","LBR004","LBR004003",-9.83386999999993,6.48014000000006,TRUE,1.09950701767994
25,"5077","Kemoweh's Village",0,NA,-9.70556,6.44547,"Grand Bassa","LR04","District # 2","LR0403","Liberia","LR","LBR","LBR004","LBR004003",-9.70555999999993,6.44547000000006,TRUE,7.26778640295195
25,"5137","Gbango Village",0,NA,-9.70123,6.45323,"Grand Bassa","LR04","District # 2","LR0403","Liberia","LR","LBR","LBR004","LBR004003",-9.70122999999995,6.45323000000008,TRUE,6.73392654338498
25,"5530","Vionless's Village",0,NA,-9.73628,6.49478,"Grand Bassa","LR04","District # 2","LR0403","Liberia","LR","LBR","LBR004","LBR004003",-9.73627999999997,6.49478000000005,TRUE,6.18151063647957
25,"5616","Geezon",0,NA,-9.72102,6.5059,"Grand Bassa","LR04","District # 2","LR0403","Liberia","LR","LBR","LBR004","LBR004003",-9.72101999999995,6.50590000000005,TRUE,5.9176507765791
25,"5656","Gweh",0,NA,-9.66498,6.50953,"Grand Bassa","LR04","District # 2","LR0403","Liberia","LR","LBR","LBR004","LBR004003",-9.66497999999996,6.50953000000004,TRUE,5.88769332795072
25,"5708","Kyne's",0,NA,-9.73589,6.51411,"Grand Bassa","LR04","District # 2","LR0403","Liberia","LR","LBR","LBR004","LBR004003",-9.73588999999993,6.51411000000007,TRUE,5.79454361773694
25,"5709","Daydeah",0,NA,-9.67926,6.51417,"Grand Bassa","LR04","District # 2","LR0403","Liberia","LR","LBR","LBR004","LBR004003",-9.67925999999994,6.51417000000004,TRUE,5.62009330824282
25,"5734","Kwatoe",0,NA,-9.65206,6.51569,"Grand Bassa","LR04","District # 2","LR0403","Liberia","LR","LBR","LBR004","LBR004003",-9.65205999999995,6.51569000000006,TRUE,5.13173284228958
25,"5746","Jacob's / Gaye Moore",0,NA,-9.7083,6.51693,"Grand Bassa","LR04","District # 2","LR0403","Liberia","LR","LBR","LBR004","LBR004003",-9.70829999999995,6.51693000000006,TRUE,4.90997225402605
25,"5807","Gozohn",0,NA,-9.66771,6.52317,"Grand Bassa","LR04","District # 2","LR0403","Liberia","LR","LBR","LBR004","LBR004003",-9.66770999999994,6.52317000000005,TRUE,4.75253985684594
25,"5829","Gaye",0,NA,-9.69784,6.52617,"Grand Bassa","LR04","District # 2","LR0403","Liberia","LR","LBR","LBR004","LBR004003",-9.69783999999993,6.52617000000004,TRUE,4.54772932111674
25,"5849","Buebee",0,NA,-9.68583,6.5275,"Grand Bassa","LR04","District # 2","LR0403","Liberia","LR","LBR","LBR004","LBR004003",-9.68582999999995,6.52750000000003,TRUE,3.6473356623673
25,"5971","Gone",0,NA,-9.67813,6.53909,"Grand Bassa","LR04","District # 2","LR0403","Liberia","LR","LBR","LBR004","LBR004003",-9.67812999999995,6.53909000000004,TRUE,2.66459575686818
26,"4936","Jeremiah",0,NA,-9.56512,6.43054,"Grand Bassa","LR04","District # 3","LR0404","Liberia","LR","LBR","LBR004","LBR004004",-9.56511999999998,6.43054000000006,TRUE,6.56778938415012
26,"4969","Fiamah Village",0,NA,-9.56079,6.43382,"Grand Bassa","LR04","District # 3","LR0404","Liberia","LR","LBR","LBR004","LBR004004",-9.56078999999994,6.43382000000003,TRUE,6.39633321632393
26,"4995","Philips Vah",0,NA,-9.55907,6.43736,"Grand Bassa","LR04","District # 3","LR0404","Liberia","LR","LBR","LBR004","LBR004004",-9.55906999999996,6.43736000000007,TRUE,5.81041648035544
26,"5039","Whoeyoko",0,NA,-9.55392,6.44207,"Grand Bassa","LR04","District # 3","LR0404","Liberia","LR","LBR","LBR004","LBR004004",-9.55391999999995,6.44207000000006,TRUE,5.38814003878909
26,"5044","Nagbo",0,NA,-9.47723,6.44269,"Grand Bassa","LR04","District # 3","LR0404","Liberia","LR","LBR","LBR004","LBR004004",-9.47722999999996,6.44269000000003,TRUE,4.62303449122013
26,"5171","Sakpayah",0,NA,-9.49124,6.45613,"Grand Bassa","LR04","District # 3","LR0404","Liberia","LR","LBR","LBR004","LBR004004",-9.49123999999995,6.45613000000003,TRUE,4.53015105553533
26,"5185","Watchee",0,NA,-9.49356,6.45811,"Grand Bassa","LR04","District # 3","LR0404","Liberia","LR","LBR","LBR004","LBR004004",-9.49355999999995,6.45811000000003,TRUE,4.4843405452115
26,"5201","Kpelle-Toe",0,NA,-9.50077,6.45951,"Grand Bassa","LR04","District # 3","LR0404","Liberia","LR","LBR","LBR004","LBR004004",-9.50076999999993,6.45951000000002,TRUE,4.40826969857328
26,"5213","Gonn",0,NA,-9.51696,6.46117,"Grand Bassa","LR04","District # 3","LR0404","Liberia","LR","LBR","LBR004","LBR004004",-9.51695999999993,6.46117000000004,TRUE,4.1573304780095
26,"5232","Gardea",0,NA,-9.51862,6.46274,"Grand Bassa","LR04","District # 3","LR0404","Liberia","LR","LBR","LBR004","LBR004004",-9.51861999999994,6.46274000000005,TRUE,3.37778334013911
26,"5292","Tarr Town / Gbardyu",0,NA,-9.50809,6.46962,"Grand Bassa","LR04","District # 3","LR0404","Liberia","LR","LBR","LBR004","LBR004004",-9.50808999999998,6.46962000000002,TRUE,2.20370710965913
26,"5300","Paw-Paw",0,NA,-9.4867,6.47012,"Grand Bassa","LR04","District # 3","LR0404","Liberia","LR","LBR","LBR004","LBR004004",-9.48669999999993,6.47012000000007,TRUE,1.86629788432368
26,"5466","Kpokon",0,NA,-9.49038,6.48909,"Grand Bassa","LR04","District # 3","LR0404","Liberia","LR","LBR","LBR004","LBR004004",-9.49037999999996,6.48909000000003,TRUE,1.61660705880898
27,"4989","Sammy Piso",0,NA,-9.34639,6.43638,"Grand Bassa","LR04","District # 3","LR0404","Liberia","LR","LBR","LBR004","LBR004004",-9.34638999999993,6.43638000000004,TRUE,5.65002340659379
27,"5154","New Zardyu",0,NA,-9.40421,6.45469,"Grand Bassa","LR04","District # 3","LR0404","Liberia","LR","LBR","LBR004","LBR004004",-9.40420999999998,6.45469000000003,TRUE,5.59583735674473
27,"5188","Gbogar",0,NA,-9.38923,6.45825,"Grand Bassa","LR04","District # 3","LR0404","Liberia","LR","LBR","LBR004","LBR004004",-9.38922999999994,6.45825000000002,TRUE,5.55591617522152
27,"5235","Kaka-Gbain / Vaingbon",0,NA,-9.36446,6.46302,"Grand Bassa","LR04","District # 3","LR0404","Liberia","LR","LBR","LBR004","LBR004004",-9.36445999999995,6.46302000000003,TRUE,4.99689273242432
27,"5279","Taylue",0,NA,-9.41484,6.46724,"Grand Bassa","LR04","District # 3","LR0404","Liberia","LR","LBR","LBR004","LBR004004",-9.41483999999997,6.46724000000006,TRUE,4.84418546907151
27,"5350","Gormah",0,NA,-9.41022,6.47709,"Grand Bassa","LR04","District # 3","LR0404","Liberia","LR","LBR","LBR004","LBR004004",-9.41021999999998,6.47709000000003,TRUE,4.84193249309749
27,"5382","Wee",0,NA,-9.40851,6.48038,"Grand Bassa","LR04","District # 3","LR0404","Liberia","LR","LBR","LBR004","LBR004004",-9.40850999999998,6.48038000000003,TRUE,4.8068969429833
27,"5458","Duo",0,NA,-9.40067,6.48852,"Grand Bassa","LR04","District # 3","LR0404","Liberia","LR","LBR","LBR004","LBR004004",-9.40066999999993,6.48852000000005,TRUE,4.6879821971038
27,"5494","Ceein",0,NA,-9.37274,6.49147,"Grand Bassa","LR04","District # 3","LR0404","Liberia","LR","LBR","LBR004","LBR004004",-9.37273999999996,6.49147000000005,TRUE,4.36110800228216
27,"5497","Garmondah Village",0,NA,-9.40044,6.49194,"Grand Bassa","LR04","District # 3","LR0404","Liberia","LR","LBR","LBR004","LBR004004",-9.40043999999995,6.49194000000006,TRUE,4.23023291069981
27,"5712","Ceezohn",0,NA,-9.34804,6.51437,"Grand Bassa","LR04","District # 3","LR0404","Liberia","LR","LBR","LBR004","LBR004004",-9.34803999999997,6.51437000000004,TRUE,3.20944231806197
27,"5762","Desoe",0,NA,-9.39043,6.51822,"Grand Bassa","LR04","District # 3","LR0404","Liberia","LR","LBR","LBR004","LBR004004",-9.39042999999998,6.51822000000004,TRUE,2.06673156516396
27,"5825","Saylor",0,NA,-9.36392,6.52548,"Grand Bassa","LR04","District # 3","LR0404","Liberia","LR","LBR","LBR004","LBR004004",-9.36391999999995,6.52548000000007,TRUE,1.26105936257123
28,"4617","Wroyonwon Diasaw",0,NA,-9.28712,6.38963,"Grand Bassa","LR04","District # 3","LR0404","Liberia","LR","LBR","LBR004","LBR004004",-9.28711999999996,6.38963000000007,TRUE,13.7301549309499
28,"4904","Moore Goffa Village /",0,NA,-9.27136,6.4268,"Grand Bassa","LR04","District # 3","LR0404","Liberia","LR","LBR","LBR004","LBR004004",-9.27135999999996,6.42680000000007,TRUE,13.5090865625439
28,"4943","George Solo",0,NA,-9.31907,6.43089,"Grand Bassa","LR04","District # 3","LR0404","Liberia","LR","LBR","LBR004","LBR004004",-9.31906999999995,6.43089000000003,TRUE,13.4012074781272
28,"4945","Deabaseh / Tompoe",0,NA,-9.19451,6.43112,"Grand Bassa","LR04","District # 3","LR0404","Liberia","LR","LBR","LBR004","LBR004004",-9.19450999999998,6.43112000000002,TRUE,13.2231852742855
28,"5054","Gbor-Larsaw / Jackson",0,NA,-9.23406,6.44333,"Grand Bassa","LR04","District # 3","LR0404","Liberia","LR","LBR","LBR004","LBR004004",-9.23405999999994,6.44333000000006,TRUE,12.8964039516462
28,"5241","Kondour",0,NA,-9.26673,6.46337,"Grand Bassa","LR04","District # 3","LR0404","Liberia","LR","LBR","LBR004","LBR004004",-9.26672999999994,6.46337000000005,TRUE,12.2669221233297
28,"5822","Yarpoe / Robert / Zeo",0,NA,-9.18332,6.52509,"Grand Bassa","LR04","District # 3","LR0404","Liberia","LR","LBR","LBR004","LBR004004",-9.18331999999998,6.52509000000003,TRUE,11.9046012447874
28,"6208","Sue",0,NA,-9.21158,6.55922,"Grand Bassa","LR04","District # 3","LR0404","Liberia","LR","LBR","LBR004","LBR004004",-9.21157999999997,6.55922000000004,TRUE,9.42960204899947
28,"6352","Zeongar",0,NA,-9.27589,6.57229,"Grand Bassa","LR04","District # 3","LR0404","Liberia","LR","LBR","LBR004","LBR004004",-9.27588999999995,6.57229000000007,TRUE,9.23015371076838
28,"6391","Karr's",0,NA,-9.24777,6.57581,"Grand Bassa","LR04","District # 3","LR0404","Liberia","LR","LBR","LBR004","LBR004004",-9.24776999999995,6.57581000000005,TRUE,7.17378063897464
28,"6399","Boe Wesseh",0,NA,-9.25951,6.57631,"Grand Bassa","LR04","District # 3","LR0404","Liberia","LR","LBR","LBR004","LBR004004",-9.25950999999998,6.57631000000003,TRUE,6.00603876562003
28,"6403","Wehgar",0,NA,-9.23679,6.57655,"Grand Bassa","LR04","District # 3","LR0404","Liberia","LR","LBR","LBR004","LBR004004",-9.23678999999993,6.57655000000005,TRUE,4.87417623588294
28,"6635","Kangba",0,NA,-9.19614,6.5954,"Grand Bassa","LR04","District # 3","LR0404","Liberia","LR","LBR","LBR004","LBR004004",-9.19613999999996,6.59540000000004,TRUE,4.87332689731411
29,"6566","Gblelawra",0,NA,-9.76488,6.58894,"Grand Bassa","LR04","District # 2","LR0403","Liberia","LR","LBR","LBR004","LBR004003",-9.76487999999995,6.58894000000004,TRUE,3.76093756302505
29,"6636","Tar",0,NA,-9.78628,6.59544,"Grand Bassa","LR04","District # 2","LR0403","Liberia","LR","LBR","LBR004","LBR004003",-9.78627999999998,6.59544000000005,TRUE,3.49796126446294
29,"6711","Memyo",0,NA,-9.76697,6.60181,"Grand Bassa","LR04","District # 2","LR0403","Liberia","LR","LBR","LBR004","LBR004003",-9.76696999999996,6.60181000000006,TRUE,3.45137787144209
29,"6741","Mepol",0,NA,-9.76174,6.60424,"Grand Bassa","LR04","District # 2","LR0403","Liberia","LR","LBR","LBR004","LBR004003",-9.76173999999997,6.60424000000006,TRUE,3.39283524754604
29,"6785","Gayezun /  Gaylor's",0,NA,-9.77874,6.60748,"Grand Bassa","LR04","District # 2","LR0403","Liberia","LR","LBR","LBR004","LBR004003",-9.77873999999997,6.60748000000007,TRUE,3.255945037439
29,"6818","Gargbo Village",0,NA,-9.76481,6.61064,"Grand Bassa","LR04","District # 2","LR0403","Liberia","LR","LBR","LBR004","LBR004003",-9.76480999999995,6.61064000000005,TRUE,2.95351816864346
29,"6895","Kayar's",0,NA,-9.76813,6.61748,"Grand Bassa","LR04","District # 2","LR0403","Liberia","LR","LBR","LBR004","LBR004003",-9.76812999999993,6.61748000000006,TRUE,2.74946082695328
29,"6944","Willie",0,NA,-9.80179,6.62171,"Grand Bassa","LR04","District # 2","LR0403","Liberia","LR","LBR","LBR004","LBR004003",-9.80178999999993,6.62171000000006,TRUE,2.62779185600927
29,"6999","Garneo Town",0,NA,-9.75054,6.62724,"Grand Bassa","LR04","District # 2","LR0403","Liberia","LR","LBR","LBR004","LBR004003",-9.75053999999994,6.62724000000003,TRUE,1.55858287125309
29,"7015","Sawzohn",0,NA,-9.79687,6.62881,"Grand Bassa","LR04","District # 2","LR0403","Liberia","LR","LBR","LBR004","LBR004003",-9.79686999999996,6.62881000000004,TRUE,1.51768302520006
29,"7162","Juejay",0,NA,-9.78579,6.64178,"Grand Bassa","LR04","District # 2","LR0403","Liberia","LR","LBR","LBR004","LBR004003",-9.78578999999996,6.64178000000004,TRUE,1.19967234370817
29,"7208","Peablah/Peayanblah",0,NA,-9.77796,6.64536,"Grand Bassa","LR04","District # 2","LR0403","Liberia","LR","LBR","LBR004","LBR004003",-9.77795999999995,6.64536000000004,TRUE,0.824628036778096
29,"7219","Yeanay's",0,NA,-9.75851,6.64664,"Grand Bassa","LR04","District # 2","LR0403","Liberia","LR","LBR","LBR004","LBR004003",-9.75850999999994,6.64664000000005,TRUE,0.41272771230671
30,"5943","Kaikayoh",0,NA,-9.65093,6.53674,"Grand Bassa","LR04","District # 2","LR0403","Liberia","LR","LBR","LBR004","LBR004003",-9.65092999999996,6.53674000000007,TRUE,10.1645388707582
30,"6225","Borbawein",0,NA,-9.66237,6.5614,"Grand Bassa","LR04","District # 2","LR0403","Liberia","LR","LBR","LBR004","LBR004003",-9.66236999999995,6.56140000000005,TRUE,9.83702019998268
30,"6425","Taye",0,NA,-9.61582,6.57858,"Grand Bassa","LR04","District # 2","LR0403","Liberia","LR","LBR","LBR004","LBR004003",-9.61581999999993,6.57858000000004,TRUE,8.84231923434709
30,"6451","Wehngbo",0,NA,-9.63959,6.58047,"Grand Bassa","LR04","District # 2","LR0403","Liberia","LR","LBR","LBR004","LBR004003",-9.63958999999994,6.58047000000005,TRUE,8.40375269374974
30,"6681","Dennis",0,NA,-9.687,6.59934,"Grand Bassa","LR04","District # 2","LR0403","Liberia","LR","LBR","LBR004","LBR004003",-9.68699999999995,6.59934000000004,TRUE,8.39470922196496
30,"6752","Yokpo",0,NA,-9.61056,6.60559,"Grand Bassa","LR04","District # 2","LR0403","Liberia","LR","LBR","LBR004","LBR004003",-9.61055999999996,6.60559000000006,TRUE,8.1238149937019
30,"6825","Whankai's",0,NA,-9.67189,6.61159,"Grand Bassa","LR04","District # 2","LR0403","Liberia","LR","LBR","LBR004","LBR004003",-9.67188999999996,6.61159000000004,TRUE,7.47428214917441
30,"7007","James Naloo Village",0,NA,-9.67494,6.62781,"Grand Bassa","LR04","District # 2","LR0403","Liberia","LR","LBR","LBR004","LBR004003",-9.67493999999994,6.62781000000007,TRUE,7.01078458478663
30,"7010","Whinee Village",0,NA,-9.68086,6.62811,"Grand Bassa","LR04","District # 2","LR0403","Liberia","LR","LBR","LBR004","LBR004003",-9.68085999999994,6.62811000000005,TRUE,6.50721913077556
30,"7017","Weasay",0,NA,-9.66576,6.62887,"Grand Bassa","LR04","District # 2","LR0403","Liberia","LR","LBR","LBR004","LBR004003",-9.66575999999998,6.62887000000006,TRUE,5.12929341310315
30,"7117","Daniel / Marborle",0,NA,-9.69757,6.63799,"Grand Bassa","LR04","District # 2","LR0403","Liberia","LR","LBR","LBR004","LBR004003",-9.69756999999993,6.63799000000006,TRUE,4.86200951500448
30,"7201","Jumoe Town / Gomu Vil",0,NA,-9.64104,6.64462,"Grand Bassa","LR04","District # 2","LR0403","Liberia","LR","LBR","LBR004","LBR004003",-9.64103999999998,6.64462000000003,TRUE,4.10242254704462
30,"7349","Malomkai's",0,NA,-9.6723,6.65638,"Grand Bassa","LR04","District # 2","LR0403","Liberia","LR","LBR","LBR004","LBR004003",-9.67229999999995,6.65638000000007,TRUE,1.05939916046604
